COMMENT,ORIGINATOR,NORAD_CAT_ID,OBJECT_NAME,OBJECT_TYPE,CLASSIFICATION_TYPE,INTLDES,EPOCH,EPOCH_MICROSECONDS,MEAN_MOTION,ECCENTRICITY,INCLINATION,RA_OF_ASC_NODE,ARG_OF_PERICENTER,MEAN_ANOMALY,EPHEMERIS_TYPE,ELEMENT_SET_NO,REV_AT_EPOCH,BSTAR,MEAN_MOTION_DOT,MEAN_MOTION_DDOT,FILE,TLE_LINE0,TLE_LINE1,TLE_LINE2,OBJECT_ID,OBJECT_NUMBER,SEMIMAJOR_AXIS,PERIOD,APOGEE,PERIGEE,DECAYED
"GENERATED VIA SPACETRACK.ORG API","18 SPCS","55293","STARLINK-5287","PAYLOAD","U","23010AA","2023-10-29 13:53:30","716736","14.98346466","0.0003074","70","38.1319","271.521","88.5597","0","999","4413","0.000099922","0.000011","0","4059417","0 STARLINK-5287","1 55293U 23010AA  23302.57882774  .00001100  00000-0  99922-4 0  9995","2 55293  70.0000  38.1319 0003074 271.5210  88.5597 14.98346466 44135","2023-010AA","55293","6950.142","96.106","574.143","569.870","0"
"GENERATED VIA SPACETRACK.ORG API","18 SPCS","55393","STARLINK-4786","PAYLOAD","U","23014C","2023-10-29 13:54:23","981472","14.98334572","0.0003093","70","77.9985","268.568","91.5125","0","999","4292","0.000061943","0.00000646","0","4059417","0 STARLINK-4786","1 55393U 23014C   23302.57944423  .00000646  00000-0  61943-4 0  9996","2 55393  70.0000  77.9985 0003093 268.5680  91.5125 14.98334572 42925","2023-014C","55393","6950.179","96.107","574.193","569.894","0"
"GENERATED VIA SPACETRACK.ORG API","18 SPCS","55275","STARLINK-5260","PAYLOAD","U","23010G","2023-10-29 14:29:33","656064","14.9834394","0.0002902","70","38.2237","267.4837","92.599","0","999","4414","0.000083499","0.00000904","0","4059417","0 STARLINK-5260","1 55275U 23010G   23302.60386176  .00000904  00000-0  83499-4 0  9997","2 55275  70.0000  38.2237 0002902 267.4837  92.5990 14.98343940 44140","2023-010G","55275","6950.150","96.106","574.032","569.998","0"
"GENERATED VIA SPACETRACK.ORG API","18 SPCS","55965","STARLINK-5894","PAYLOAD","U","23037BD","2023-10-29 15:57:41","918400","14.98315978","0.000296","70","277.7822","267.0873","92.9947","0","999","3569","-0.00021829","-0.00002696","0","4059823","0 STARLINK-5894","1 55965U 23037BD  23302.66506850 -.00002696  00000-0 -21829-3 0  9991","2 55965  70.0000 277.7822 0002960 267.0873  92.9947 14.98315978 35692","2023-037BD","55965","6950.236","96.108","574.159","570.044","0"
"GENERATED VIA SPACETRACK.ORG API","18 SPCS","55305","STARLINK-5316","PAYLOAD","U","23010AN","2023-10-29 16:17:42","503424","14.98350421","0.0003087","70","38.083","267.68","92.4006","0","999","4383","0.00011983","0.00001338","0","4059913","0 STARLINK-5316","1 55305U 23010AN  23302.67896416  .00001338  00000-0  11983-3 0  9991","2 55305  70.0000  38.0830 0003087 267.6800  92.4006 14.98350421 43832","2023-010AN","55305","6950.130","96.106","574.140","569.849","0"
"GENERATED VIA SPACETRACK.ORG API","18 SPCS","55305","STARLINK-5316","PAYLOAD","U","23010AN","2023-10-29 16:17:42","503424","14.98350421","0.0003087","70","38.083","267.68","92.4006","0","999","4415","0.00011983","0.00001338","0","4059994","0 STARLINK-5316","1 55305U 23010AN  23302.67896416  .00001338  00000-0  11983-3 0  9991","2 55305  70.0000  38.0830 0003087 267.6800  92.4006 14.98350421 44158","2023-010AN","55305","6950.130","96.106","574.140","569.849","0"
"GENERATED VIA SPACETRACK.ORG API","18 SPCS","55393","STARLINK-4786","PAYLOAD","U","23014C","2023-10-29 18:42:47","642976","14.98340754","0.0003134","70","77.4936","269.9425","90.1375","0","999","4295","0.00011038","0.00001225","0","4059994","0 STARLINK-4786","1 55393U 23014C   23302.77971809  .00001225  00000-0  11038-3 0  9999","2 55393  70.0000  77.4936 0003134 269.9425  90.1375 14.98340754 42958","2023-014C","55393","6950.160","96.106","574.203","569.846","0"
"GENERATED VIA SPACETRACK.ORG API","18 SPCS","56449","STARLINK-5993","PAYLOAD","U","23064B","2023-10-29 20:02:03","793632","14.98337704","0.0002672","70","157.6988","275.1885","84.8969","0","999","2650","-0.000081035","-0.0000106","0","4059861","0 STARLINK-5993","1 56449U 23064B   23302.83476613 -.00001060  00000-0 -81035-4 0  9991","2 56449  70.0000 157.6988 0002672 275.1885  84.8969 14.98337704 26507","2023-064B","56449","6950.169","96.107","573.891","570.177","0"
"GENERATED VIA SPACETRACK.ORG API","18 SPCS","55678","STARLINK-5314","PAYLOAD","U","23021BC","2023-10-29 20:38:24","398304","14.98328993","0.000286","70","177.319","269.9853","90.0979","0","999","3989","0.00013768","0.0000155","0","4059898","0 STARLINK-5314","1 55678U 23021BC  23302.86000461  .00001550  00000-0  13768-3 0  9993","2 55678  70.0000 177.3190 0002860 269.9853  90.0979 14.98328993 39895","2023-021BC","55678","6950.196","96.107","574.049","570.073","0"
"GENERATED VIA SPACETRACK.ORG API","18 SPCS","55754","STARLINK-5612","PAYLOAD","U","23028P","2023-10-29 21:27:38","960352","14.98456537","0.0003329","70","257.2596","272.9421","87.1357","0","999","3695","0.0015669","0.00018715","0","4059994","0 STARLINK-5612","1 55754U 23028P   23302.89420093  .00018715  00000-0  15669-2 0  9997","2 55754  70.0000 257.2596 0003329 272.9421  87.1357 14.98456537 36951","2023-028P","55754","6949.802","96.099","573.980","569.353","0"
"GENERATED VIA SPACETRACK.ORG API","18 SPCS","55633","STARLINK-5498","PAYLOAD","U","23021F","2023-10-29 22:03:12","451968","14.98329847","0.0002765","70","217.2688","274.2095","85.8748","0","999","3921","0.00024647","0.00002849","0","4059994","0 STARLINK-5498","1 55633U 23021F   23302.91889412  .00002849  00000-0  24647-3 0  9991","2 55633  70.0000 217.2688 0002765 274.2095  85.8748 14.98329847 39214","2023-021F","55633","6950.193","96.107","573.980","570.137","0"
"GENERATED VIA SPACETRACK.ORG API","18 SPCS","55675","STARLINK-5232","PAYLOAD","U","23021AZ","2023-10-29 22:13:16","371552","14.99137696","0.0002696","70","177.1477","263.1413","96.9439","0","999","4020","0.000074156","0.0000081","0","4059994","0 STARLINK-5232","1 55675U 23021AZ  23302.92588393  .00000810  00000-0  74156-4 0  9999","2 55675  70.0000 177.1477 0002696 263.1413  96.9439 14.99137696 40205","2023-021AZ","55675","6947.696","96.055","571.434","567.688","0"
"GENERATED VIA SPACETRACK.ORG API","18 SPCS","55678","STARLINK-5314","PAYLOAD","U","23021BC","2023-10-29 22:14:32","190144","14.9833455","0.0002708","70","177.1501","266.2977","93.7872","0","999","4020","0.00011846","0.00001321","0","4059994","0 STARLINK-5314","1 55678U 23021BC  23302.92676146  .00001321  00000-0  11846-3 0  9990","2 55678  70.0000 177.1501 0002708 266.2977  93.7872 14.98334550 40202","2023-021BC","55678","6950.179","96.107","573.926","570.162","0"
"GENERATED VIA SPACETRACK.ORG API","18 SPCS","55960","STARLINK-5938","PAYLOAD","U","23037AY","2023-10-29 22:51:59","873184","14.96711566","0.000267","70","276.7751","273.9349","86.1504","0","999","3540","0.000090969","0.0000095","0","4059994","0 STARLINK-5938","1 55960U 23037AY  23302.95277631  .00000950  00000-0  90969-4 0  9991","2 55960  70.0000 276.7751 0002670 273.9349  86.1504 14.96711566 35403","2023-037AY","55960","6955.202","96.211","578.924","575.210","0"
"GENERATED VIA SPACETRACK.ORG API","18 SPCS","55672","STARLINK-5461","PAYLOAD","U","23021AW","2023-10-30 01:14:47","194368","14.98330705","0.0002376","70","176.7867","270.6612","89.4275","0","999","3992","0.00008723","0.00000948","0","4060519","0 STARLINK-5461","1 55672U 23021AW  23303.05193512  .00000948  00000-0  87230-4 0  9995","2 55672  70.0000 176.7867 0002376 270.6612  89.4275 14.98330705 39926","2023-021AW","55672","6950.191","96.107","573.707","570.404","0"
"GENERATED VIA SPACETRACK.ORG API","18 SPCS","55958","STARLINK-5928","PAYLOAD","U","23037AW","2023-10-30 03:46:41","528640","14.98325139","0.0002844","70","276.6928","270.8728","89.2105","0","999","3576","0.000015068","0.00000087","0","4060546","0 STARLINK-5928","1 55958U 23037AW  23303.15742510  .00000087  00000-0  15068-4 0  9992","2 55958  70.0000 276.6928 0002844 270.8728  89.2105 14.98325139 35764","2023-037AW","55958","6950.208","96.107","574.050","570.096","0"
"GENERATED VIA SPACETRACK.ORG API","18 SPCS","56810","STARLINK-6031","PAYLOAD","U","23078AV","2023-10-30 04:00:02","28960","14.98318817","0.0003104","70","356.6082","265.5362","94.5443","0","999","2389","0.00010702","0.00001184","0","4060021","0 STARLINK-6031","1 56810U 23078AV  23303.16669015  .00001184  00000-0  10702-3 0  9992","2 56810  70.0000 356.6082 0003104 265.5362  94.5443 14.98318817 23897","2023-078AV","56810","6950.227","96.108","574.250","569.935","0"
"GENERATED VIA SPACETRACK.ORG API","18 SPCS","55633","STARLINK-5498","PAYLOAD","U","23021F","2023-10-30 04:27:43","859520","14.98342777","0.0002733","70","216.5969","275.7065","84.3782","0","999","3895","0.00029417","0.0000342","0","4060447","0 STARLINK-5498","1 55633U 23021F   23303.18592430  .00003420  00000-0  29417-3 0  9998","2 55633  70.0000 216.5969 0002733 275.7065  84.3782 14.98342777 38955","2023-021F","55633","6950.153","96.106","573.918","570.119","0"
"GENERATED VIA SPACETRACK.ORG API","18 SPCS","55287","STARLINK-5341","PAYLOAD","U","23010U","2023-10-30 11:25:15","549888","14.98316136","0.0003067","70","16.0808","269.2699","90.8108","0","999","4444","-0.000035121","-0.00000512","0","4061073","0 STARLINK-5341","1 55287U 23010U   23303.47587442 -.00000512  00000-0 -35121-4 0  9991","2 55287  70.0000  16.0808 0003067 269.2699  90.8108 14.98316136 44442","2023-010U","55287","6950.236","96.108","574.232","569.969","0"
"GENERATED VIA SPACETRACK.ORG API","18 SPCS","55287","STARLINK-5341","PAYLOAD","U","23010U","2023-10-30 11:25:15","549888","14.98316136","0.0003067","70","16.0808","269.2699","90.8108","0","999","4475","-0.000035121","-0.00000512","0","4061878","0 STARLINK-5341","1 55287U 23010U   23303.47587442 -.00000512  00000-0 -35121-4 0  9991","2 55287  70.0000  16.0808 0003067 269.2699  90.8108 14.98316136 44756","2023-010U","55287","6950.236","96.108","574.232","569.969","0"
